KUIPER-00061            
1 64521U 25134X   25263.25003472 -.00011247  00000+0 -62341-3 0  9999
2 64521  51.8835 264.5856 0009333  60.7720 274.4775 15.12376807  5467
KUIPER-00062            
1 64522U 25134Y   25262.40855160  .00002042  00000+0  15323-3 0  9994
2 64522  51.8850 274.6093 0010653  73.7950 286.4195 15.07093869 14654
KUIPER-00063            
1 64523U 25134Z   25263.03349081  .00003231  00000+0  45608-3 0  9995
2 64523  51.8998 272.5986 0004660  35.0774 325.0494 14.79616024 14735
KUIPER-00064            
1 64524U 25134AA  25263.25003472 -.00038820  00000+0 -40600-2 0  9991
2 64524  51.8942 268.9465 0004703 136.7577 314.7607 14.89219583  5623
KUIPER-00065            
1 64525U 25134AB  25263.00002315  .00030435  00000+0  40131-2 0  9991
2 64525  51.8993 274.9833 0011720  79.5912 291.5471 14.79786011  4242
KUIPER-00066            
1 64526U 25134AC  25263.01852548  .00016879  00000+0  82880-3 0  9998
2 64526  51.8858 268.1915 0006289  60.5441 299.6164 15.18161516 14790
KUIPER-00069            
1 64816U 25151A   25262.90352842  .00038106  00000+0  10319-2 0  9992
2 64816  51.8808 330.7934 0007655  21.0880 339.0422 15.37277215 11261
KUIPER-00070            
1 64817U 25151B   25263.25003472  .00000330  00000+0  72874-4 0  9998
2 64817  51.8999 339.1673 0009606  56.2044 212.6424 14.79744856  5059
